[{"OBJECT_NAME":"ONEWEB-0012","OBJECT_ID":"2019-010A","EPOCH":"2025-08-04T06:28:36.000768","MEAN_MOTION":13.165964,"ECCENTRICITY":0.000241,"INCLINATION":87.9039,"RA_OF_ASC_NODE":291.9733,"ARG_OF_PERICENTER":103.0517,"MEAN_ANOMALY":257.0883,"EPHEMERIS_TYPE":0,"CLASSIFICATION_TYPE":"U","NORAD_CAT_ID":44057,"ELEMENT_SET_NO":999,"REV_AT_EPOCH":30986,"BSTAR":0.00011468,"MEAN_MOTION_DOT":5.7e-7,"MEAN_MOTION_DDOT":0},{"OBJECT_NAME":"ONEWEB-0010","OBJECT_ID":"2019-010B","EPOCH":"2025-08-04T07:05:03.249600","MEAN_MOTION":13.16596416,"ECCENTRICITY":0.0001987,"INCLINATION":87.904,"RA_OF_ASC_NODE":291.9516,"ARG_OF_PERICENTER":85.5286,"MEAN_ANOMALY":274.6072,"EPHEMERIS_TYPE":0,"CLASSIFICATION_TYPE":"U","NORAD_CAT_ID":44058,"ELEMENT_SET_NO":999,"REV_AT_EPOCH":30991,"BSTAR":-8.498e-6,"MEAN_MOTION_DOT":1.0e-7,"MEAN_MOTION_DDOT":0},{"OBJECT_NAME":"ONEWEB-0008","OBJECT_ID":"2019-010C","EPOCH":"2025-08-04T13:09:51.287328","MEAN_MOTION":13.16594075,"ECCENTRICITY":0.00019,"INCLINATION":87.9038,"RA_OF_ASC_NODE":291.8994,"ARG_OF_PERICENTER":102.9401,"MEAN_ANOMALY":257.1942,"EPHEMERIS_TYPE":0,"CLASSIFICATION_TYPE":"U","NORAD_CAT_ID":44059,"ELEMENT_SET_NO":999,"REV_AT_EPOCH":31006,"BSTAR":-8.5441e-5,"MEAN_MOTION_DOT":-2.0e-7,"MEAN_MOTION_DDOT":0},{"OBJECT_NAME":"ONEWEB-0007","OBJECT_ID":"2019-010D","EPOCH":"2025-08-04T07:58:11.598816","MEAN_MOTION":13.15550127,"ECCENTRICITY":0.0002151,"INCLINATION":87.9091,"RA_OF_ASC_NODE":322.4212,"ARG_OF_PERICENTER":92.9096,"MEAN_ANOMALY":267.2281,"EPHEMERIS_TYPE":0,"CLASSIFICATION_TYPE":"U","NORAD_CAT_ID":44060,"ELEMENT_SET_NO":999,"REV_AT_EPOCH":30971,"BSTAR":-0.0021492,"MEAN_MOTION_DOT":-7.96e-6,"MEAN_MOTION_DDOT":0},{"OBJECT_NAME":"ONEWEB-0006","OBJECT_ID":"2019-010E","EPOCH":"2025-08-04T13:32:29.110848","MEAN_MOTION":13.15548527,"ECCENTRICITY":0.0002031,"INCLINATION":87.9078,"RA_OF_ASC_NODE":322.3174,"ARG_OF_PERICENTER":91.163,"MEAN_ANOMALY":268.9733,"EPHEMERIS_TYPE":0,"CLASSIFICATION_TYPE":"U","NORAD_CAT_ID":44061,"ELEMENT_SET_NO":999,"REV_AT_EPOCH":30979,"BSTAR":-4.4647e-5,"MEAN_MOTION_DOT":-4.0e-8,"MEAN_MOTION_DDOT":0},{"OBJECT_NAME":"ONEWEB-0011","OBJECT_ID":"2019-010F","EPOCH":"2025-08-04T09:07:49.764576","MEAN_MOTION":13.15548287,"ECCENTRICITY":0.0001688,"INCLINATION":87.9085,"RA_OF_ASC_NODE":322.3646,"ARG_OF_PERICENTER":96.5569,"MEAN_ANOMALY":263.5754,"EPHEMERIS_TYPE":0,"CLASSIFICATION_TYPE":"U","NORAD_CAT_ID":44062,"ELEMENT_SET_NO":999,"REV_AT_EPOCH":30976,"BSTAR":2.2559e-5,"MEAN_MOTION_DOT":2.1e-7,"MEAN_MOTION_DDOT":0},{"OBJECT_NAME":"ONEWEB-0013","OBJECT_ID":"2020-008A","EPOCH":"2025-08-04T06:58:52.212576","MEAN_MOTION":13.09429279,"ECCENTRICITY":0.0002597,"INCLINATION":87.8553,"RA_OF_ASC_NODE":116.815,"ARG_OF_PERICENTER":94.7319,"MEAN_ANOMALY":265.4105,"EPHEMERIS_TYPE":0,"CLASSIFICATION_TYPE":"U","NORAD_CAT_ID":45131,"ELEMENT_SET_NO":999,"REV_AT_EPOCH":26459,"BSTAR":-0.0020497,"MEAN_MOTION_DOT":-6.93e-6,"MEAN_MOTION_DDOT":0},{"OBJECT_NAME":"ONEWEB-0017","OBJECT_ID":"2020-008B","EPOCH":"2025-08-04T11:56:58.052832","MEAN_MOTION":13.1037504,"ECCENTRICITY":0.0001761,"INCLINATION":87.88,"RA_OF_ASC_NODE":99.4406,"ARG_OF_PERICENTER":69.9542,"MEAN_ANOMALY":290.1775,"EPHEMERIS_TYPE":0,"CLASSIFICATION_TYPE":"U","NORAD_CAT_ID":45132,"ELEMENT_SET_NO":999,"REV_AT_EPOCH":26647,"BSTAR":0.00079245,"MEAN_MOTION_DOT":2.89e-6,"MEAN_MOTION_DDOT":0},{"OBJECT_NAME":"ONEWEB-0020","OBJECT_ID":"2020-008C","EPOCH":"2025-08-04T03:54:06.268320","MEAN_MOTION":13.10364303,"ECCENTRICITY":0.0001555,"INCLINATION":87.8793,"RA_OF_ASC_NODE":99.4911,"ARG_OF_PERICENTER":76.0621,"MEAN_ANOMALY":284.0679,"EPHEMERIS_TYPE":0,"CLASSIFICATION_TYPE":"U","NORAD_CAT_ID":45133,"ELEMENT_SET_NO":999,"REV_AT_EPOCH":26682,"BSTAR":0.0014312,"MEAN_MOTION_DOT":5.12e-6,"MEAN_MOTION_DDOT":0},{"OBJECT_NAME":"ONEWEB-0021","OBJECT_ID":"2020-008D","EPOCH":"2025-08-04T04:15:37.753056","MEAN_MOTION":13.10376778,"ECCENTRICITY":0.0001912,"INCLINATION":87.8799,"RA_OF_ASC_NODE":99.5223,"ARG_OF_PERICENTER":76.6257,"MEAN_ANOMALY":283.5083,"EPHEMERIS_TYPE":0,"CLASSIFICATION_TYPE":"U","NORAD_CAT_ID":45134,"ELEMENT_SET_NO":999,"REV_AT_EPOCH":26713,"BSTAR":-0.00096933,"MEAN_MOTION_DOT":-3.26e-6,"MEAN_MOTION_DDOT":0},{"OBJECT_NAME":"ONEWEB-0023","OBJECT_ID":"2020-008F","EPOCH":"2025-08-04T11:50:58.793856","MEAN_MOTION":13.10376278,"ECCENTRICITY":0.0001696,"INCLINATION":87.8797,"RA_OF_ASC_NODE":99.4422,"ARG_OF_PERICENTER":86.6132,"MEAN_ANOMALY":273.5189,"EPHEMERIS_TYPE":0,"CLASSIFICATION_TYPE":"U","NORAD_CAT_ID":45136,"ELEMENT_SET_NO":999,"REV_AT_EPOCH":26660,"BSTAR":0.00030641,"MEAN_MOTION_DOT":1.2e-6,"MEAN_MOTION_DDOT":0},{"OBJECT_NAME":"ONEWEB-0024","OBJECT_ID":"2020-008G","EPOCH":"2025-08-04T14:51:26.028864","MEAN_MOTION":13.10370848,"ECCENTRICITY":0.000183,"INCLINATION":87.8791,"RA_OF_ASC_NODE":99.3658,"ARG_OF_PERICENTER":76.4317,"MEAN_ANOMALY":283.7014,"EPHEMERIS_TYPE":0,"CLASSIFICATION_TYPE":"U","NORAD_CAT_ID":45137,"ELEMENT_SET_NO":999,"REV_AT_EPOCH":26678,"BSTAR":-0.0014869,"MEAN_MOTION_DOT":-5.06e-6,"MEAN_MOTION_DDOT":0},{"OBJECT_NAME":"ONEWEB-0025","OBJECT_ID":"2020-008H","EPOCH":"2025-08-04T09:46:39.924192","MEAN_MOTION":13.1037426,"ECCENTRICITY":0.000226,"INCLINATION":87.8815,"RA_OF_ASC_NODE":99.4147,"ARG_OF_PERICENTER":88.7889,"MEAN_ANOMALY":271.3497,"EPHEMERIS_TYPE":0,"CLASSIFICATION_TYPE":"U","NORAD_CAT_ID":45138,"ELEMENT_SET_NO":999,"REV_AT_EPOCH":26708,"BSTAR":-0.0013947,"MEAN_MOTION_DOT":-4.74e-6,"MEAN_MOTION_DDOT":0},{"OBJECT_NAME":"ONEWEB-0026","OBJECT_ID":"2020-008J","EPOCH":"2025-08-04T14:28:41.411712","MEAN_MOTION":13.11418096,"ECCENTRICITY":0.0001585,"INCLINATION":87.8801,"RA_OF_ASC_NODE":84.164,"ARG_OF_PERICENTER":76.2133,"MEAN_ANOMALY":283.9171,"EPHEMERIS_TYPE":0,"CLASSIFICATION_TYPE":"U","NORAD_CAT_ID":45139,"ELEMENT_SET_NO":999,"REV_AT_EPOCH":26961,"BSTAR":-0.00011441,"MEAN_MOTION_DOT":-2.8e-7,"MEAN_MOTION_DDOT":0},{"OBJECT_NAME":"ONEWEB-0028","OBJECT_ID":"2020-008K","EPOCH":"2025-08-04T09:46:42.262176","MEAN_MOTION":13.11415433,"ECCENTRICITY":0.0002281,"INCLINATION":87.8796,"RA_OF_ASC_NODE":84.2245,"ARG_OF_PERICENTER":92.6422,"MEAN_ANOMALY":267.4967,"EPHEMERIS_TYPE":0,"CLASSIFICATION_TYPE":"U","NORAD_CAT_ID":45140,"ELEMENT_SET_NO":999,"REV_AT_EPOCH":26710,"BSTAR":0.00061799,"MEAN_MOTION_DOT":2.32e-6,"MEAN_MOTION_DDOT":0},{"OBJECT_NAME":"ONEWEB-0032","OBJECT_ID":"2020-008L","EPOCH":"2025-08-04T11:59:21.446592","MEAN_MOTION":13.10375764,"ECCENTRICITY":0.0001937,"INCLINATION":87.8794,"RA_OF_ASC_NODE":99.4427,"ARG_OF_PERICENTER":82.1089,"MEAN_ANOMALY":278.0258,"EPHEMERIS_TYPE":0,"CLASSIFICATION_TYPE":"U","NORAD_CAT_ID":45141,"ELEMENT_SET_NO":999,"REV_AT_EPOCH":26682,"BSTAR":0.00098442,"MEAN_MOTION_DOT":3.56e-6,"MEAN_MOTION_DDOT":0},{"OBJECT_NAME":"ONEWEB-0033","OBJECT_ID":"2020-008M","EPOCH":"2025-08-04T15:03:22.654656","MEAN_MOTION":13.10372885,"ECCENTRICITY":0.0001722,"INCLINATION":87.8801,"RA_OF_ASC_NODE":99.4275,"ARG_OF_PERICENTER":78.3947,"MEAN_ANOMALY":281.7374,"EPHEMERIS_TYPE":0,"CLASSIFICATION_TYPE":"U","NORAD_CAT_ID":45142,"ELEMENT_SET_NO":999,"REV_AT_EPOCH":26675,"BSTAR":-0.0019647,"MEAN_MOTION_DOT":-6.73e-6,"MEAN_MOTION_DDOT":0}]
