ONEWEB-0012             
1 44057U 19010A   25216.26986112  .00000057  00000+0  11468-3 0  9996
2 44057  87.9039 291.9733 0002410 103.0517 257.0883 13.16596400309860
ONEWEB-0010             
1 44058U 19010B   25216.29517650  .00000010  00000+0 -84980-5 0  9998
2 44058  87.9040 291.9516 0001987  85.5286 274.6072 13.16596416309915
ONEWEB-0008             
1 44059U 19010C   25216.54851027 -.00000020  00000+0 -85441-4 0  9990
2 44059  87.9038 291.8994 0001900 102.9401 257.1942 13.16594075310069
ONEWEB-0007             
1 44060U 19010D   25216.33207869 -.00000796  00000+0 -21492-2 0  9992
2 44060  87.9091 322.4212 0002151  92.9096 267.2281 13.15550127309718
ONEWEB-0006             
1 44061U 19010E   25216.56422582 -.00000004  00000+0 -44647-4 0  9990
2 44061  87.9078 322.3174 0002031  91.1630 268.9733 13.15548527309791
ONEWEB-0011             
1 44062U 19010F   25216.38043709  .00000021  00000+0  22559-4 0  9996
2 44062  87.9085 322.3646 0001688  96.5569 263.5754 13.15548287309765
ONEWEB-0013             
1 45131U 20008A   25216.29088209 -.00000693  00000+0 -20497-2 0  9991
2 45131  87.8553 116.8150 0002597  94.7319 265.4105 13.09429279264595
ONEWEB-0017             
1 45132U 20008B   25216.49789413  .00000289  00000+0  79245-3 0  9994
2 45132  87.8800  99.4406 0001761  69.9542 290.1775 13.10375040266470
ONEWEB-0020             
1 45133U 20008C   25216.16257255  .00000512  00000+0  14312-2 0  9995
2 45133  87.8793  99.4911 0001555  76.0621 284.0679 13.10364303266825
ONEWEB-0021             
1 45134U 20008D   25216.17752029 -.00000326  00000+0 -96933-3 0  9991
2 45134  87.8799  99.5223 0001912  76.6257 283.5083 13.10376778267134
ONEWEB-0023             
1 45136U 20008F   25216.49373604  .00000120  00000+0  30641-3 0  9990
2 45136  87.8797  99.4422 0001696  86.6132 273.5189 13.10376278266608
ONEWEB-0024             
1 45137U 20008G   25216.61905126 -.00000506  00000+0 -14869-2 0  9998
2 45137  87.8791  99.3658 0001830  76.4317 283.7014 13.10370848266781
ONEWEB-0025             
1 45138U 20008H   25216.40740653 -.00000474  00000+0 -13947-2 0  9998
2 45138  87.8815  99.4147 0002260  88.7889 271.3497 13.10374260267085
ONEWEB-0026             
1 45139U 20008J   25216.60325708 -.00000028  00000+0 -11441-3 0  9994
2 45139  87.8801  84.1640 0001585  76.2133 283.9171 13.11418096269619
ONEWEB-0028             
1 45140U 20008K   25216.40743359  .00000232  00000+0  61799-3 0  9996
2 45140  87.8796  84.2245 0002281  92.6422 267.4967 13.11415433267107
ONEWEB-0032             
1 45141U 20008L   25216.49955378  .00000356  00000+0  98442-3 0  9994
2 45141  87.8794  99.4427 0001937  82.1089 278.0258 13.10375764266826
ONEWEB-0033             
1 45142U 20008M   25216.62734554 -.00000673  00000+0 -19647-2 0  9994
2 45142  87.8801  99.4275 0001722  78.3947 281.7374 13.10372885266752
